#cP2022  3 21 18  0  0.00000000     576 d+D   IGb14 EXT AIUB
## 2202 151200.00000000   300.00000000 59659 0.7500000000000
+   76   G01G02G03G04G05G06G07G08G09G10G11G12G13G14G15G16G17
+        G18G19G20G21G22G23G24G25G26G27G28G29G30G31G32R01R02
+        R03R04R05R07R08R09R12R13R14R15R17R18R19R20R21R22R24
+        E01E02E03E04E05E07E08E10E11E12E13E14E15E18E19E21E24
+        E25E26E27E30E31E33E34E36  0  0  0  0  0  0  0  0  0
++         6  7  6  8  7  6  7  6  6  5  8  7  7  7  7  7  7
++         8  7  7  7  7  7  6  6  6  6  7  7  6  6  6  8  7
++         7  7  6  7  7  7  7  7  7  7  8  7  9  9  8  8  8
++         6  6  6  6  6  6  6  7  7  7  6  7  7  7  7  5  6
++         6  6  6  6  6  6  7  7  0  0  0  0  0  0  0  0  0
%c M  cc GPS ccc cccc cccc cccc cccc ccccc ccccc ccccc ccccc
%c cc cc ccc ccc cccc cccc cccc cccc ccccc ccccc ccccc ccccc
%f  1.2500000  1.025000000  0.00000000000  0.000000000000000
%f  0.0000000  0.000000000  0.00000000000  0.000000000000000
%i    0    0    0    0      0      0      0      0         0
%i    0    0    0    0      0      0      0      0         0
/* Center for Orbit Determination in Europe (CODE)          
/* Ultra-rapid GRE orbits starting year-day 22080 18 hour   
/* Observed/predicted: 24/24 hours (data used up to 081R)   
/* PCV:IGS14      OL/AL:FES2014b NONE     YN ORB:CoN CLK:BRD
*  2022  3 23 15 20  0.00000000
PG01    207.518896 -15361.088709 -21904.063755    402.033151               P   P
PG02 -19664.911510  15790.984079   9202.983825   -652.560150               P   P
PG03  -9079.283850 -20539.005849 -14373.151340   -176.202971               P   P
PG04   -129.236339 -25318.479192   7888.268431   -181.559472               P   P
PG05  -6288.779059  14126.069525  21420.041650    -75.704419               P   P
PG06 -25474.319044   4939.508039  -5796.102372    241.190892               P   P
PG07 -16677.632404  -8731.956180  19310.632383    317.418890               P   P
PG08   5843.343752 -25590.162712   2466.206274    -60.979228               P   P
PG09  -8729.538181 -18879.692178  16430.157802   -348.151549               P   P
PG10  22526.165001   9762.591143 -10352.870209   -355.796075               P   P
PG11 -21494.020022  12823.455056   8870.624392    -57.076221               P   P
PG12   4505.118565  20435.047527 -16699.792568   -189.274202               P   P
PG13 -13140.057518  21241.614748   8632.410766    281.725341               P   P
PG14 -22187.132549 -10938.519802  -9778.643058    -96.554053               P   P
PG15  -2418.965362  26217.298364   1345.517217    -74.564571               P   P
PG16  11395.548339  -9646.810877  21704.735334   -483.916941               P   P
PG17 -14322.514640  -2905.479992 -21750.640545    591.020449               P   P
PG18  16101.602482   8543.196405  19349.703019    213.114363               P   P
PG19 -16038.775236   4849.550722 -20821.767526    134.818257               P   P
PG20 -14624.529379   8488.082597  20432.832161    516.167834               P   P
PG21  10971.489542 -17207.285787 -15969.841142    159.719477               P   P
PG22  15982.951018  -8567.971314 -18935.265999    231.981278               P   P
PG23  20749.966233  16665.767216     46.605766     -9.207888               P   P
PG24  -3755.518095  17619.244924 -19686.771872    265.209812               P   P
PG25  16447.643705  20014.151067  -6782.121836    302.241068               P   P
PG26  20069.990390   -818.757103  17442.446198    193.069596               P   P
PG27  12309.973925 -19434.631675  12710.711228    163.155700               P   P
PG28 -19985.407642  -4440.793699 -16277.747255    374.114260               P   P
PG29   5533.675398  20576.216816  15771.684618   -494.729844               P   P
PG30 -22809.828695  -2849.980501  13591.212469   -520.212516               P   P
PG31  25915.091338  -6063.387487  -3398.144470   -170.222770               P   P
PG32  15449.429339   -951.398397 -21426.591279    -90.487993               P   P
PR01   6992.146659  24503.648363   1010.640156      7.325783               P   P
PR02  12290.974429  14296.848437 -17167.097261    513.388296               P   P
PR03  10185.135834  -4067.461825 -22979.495097     53.561293               P   P
PR04   2259.948001 -19775.772667 -15914.360563    133.195725               P   P
PR05  -6717.067994 -24595.476994    -27.666601     89.904203               P   P
PR07  -9950.103511   4944.932915  23006.090870     32.962300               P   P
PR08  -2265.421734  19884.466362  15892.652365    -64.133948               P   P
PR09 -23690.484577  -8108.820762   5072.957434     45.939932               P   P
PR12  10801.451309  12309.929095 -19544.736148     17.547049               P   P
PR13  23181.686578   8597.235275  -6303.253064    -19.806437               P   P
PR14  22425.944371   -554.937469  12136.047513     75.699480               P   P
PR15   8436.728828  -8944.683587  22362.751380     97.343048               P   P
PR17  19315.896578 -12359.408228  11212.258510    511.853345               P   P
PR18  15753.293245 -19248.006971  -5504.985605    111.239582               P   P
PR19   5291.398162 -16473.251632 -18741.240018   -182.606113               P   P
PR20 -11666.961604  -2695.067395 -22522.786919    -67.272133               P   P
PR21 -19429.813099  13218.312148  -9899.346468   -287.560373               P   P
PR22 -15494.804463  19301.237477   6374.122010   -172.283410               P   P
PR24  12493.472526   2199.153157  22146.975243     85.811115               P   P
PE01   9213.651136  21129.101622 -18580.910332   -602.349484               P   P
PE02  -9353.633243 -21133.935169  18475.052171    288.125509               P   P
PE03  -2226.160535 -29048.224516   5269.399357   -540.368486               P   P
PE04  13437.497345  16883.871586 -20253.178683   -990.778256               P   P
PE05  10518.923004 -24361.245878 -13110.964642   -197.656978               P   P
PE07 -16969.792883   5565.136119  23613.020592   -651.223231               P   P
PE08 -13534.697229 -16478.835524  20536.803091   -499.995663               P   P
PE10  24524.308720   -775.301605  16548.684231   -502.232638               P   P
PE11  27285.609097  -8597.678517   7547.836253   4155.317300               P   P
PE12  18068.474083   7015.456832  22363.815388   4699.179465               P   P
PE13 -27233.000189   8215.191715  -8208.809154    427.494500               P   P
PE14 -15572.655448 -16699.683583 -23053.588681  -1788.426437               P   P
PE15 -17959.006263  -6993.351626 -22462.940064    756.082966               P   P
PE18  13739.140258   6742.740279  18091.758434  -1650.212982               P   P
PE19    495.753296  29449.877682  -2955.576436  -1797.881724               P   P
PE21  -9817.364372  13465.833797 -24469.330683   -724.204428               P   P
PE24  24861.774424   3519.378632  15679.157419   -521.148821               P   P
PE25  10088.775578 -13278.105359  24456.026028   -567.811199               P   P
PE26 -19750.029102  18756.379262  11601.999898   -945.846815               P   P
PE27 -24359.930491  -2350.814371 -16642.192002   -259.691310               P   P
PE30 -23940.342271 -17283.949610   1903.506465   -371.890748               P   P
PE31  24457.004553  16658.497871   -912.669023   -493.958059               P   P
PE33  -1883.387233  18024.013176  23413.231695   -458.291710               P   P
PE34   1612.812936 -17955.706184 -23480.767316   -508.253645               P   P
PE36  20445.965301 -18487.698363 -10762.529042   -349.354529               P   P
EOF
